STARLINK-36730          
1 67874U 26034AA  26061.83335647 -.00011384  00000+0 -54205-4 0  9999
2 67874  53.1542 245.5056 0000968  86.3933 334.3851 15.80875791  2769
STARLINK-36727          
1 67875U 26034AB  26061.83335647 -.00012494  00000+0 -59836-4 0  9998
2 67875  53.1529 245.4964 0000594  87.4352 337.6106 15.80879965  2760
STARLINK-36743          
1 67876U 26034AC  26061.83335647  .00024233  00000+0  12607-3 0  9995
2 67876  53.1528 245.4870 0001123  90.4038 338.9236 15.80856371  2764
STARLINK-36784          
1 67877U 26034AD  26061.83335647  .00096040  00000+0  48593-3 0  9994
2 67877  53.1528 245.4787 0001403  56.8834  16.7262 15.80818660  2762
STARLINK-36689          
1 67878U 26034AE  26061.83335647  .00058057  00000+0  29623-3 0  9994
2 67878  53.1526 245.4699 0001289  78.1453 359.7392 15.80834092  2760
STARLINK-36818          
1 67879U 26035A   26061.83335647 -.00847045  24520-3 -15326-2 0  9992
2 67879  97.2793 353.6169 0001157  94.6972 346.9148 16.01554262  2650
STARLINK-36821          
1 67880U 26035B   26061.83335647 -.00854619  24983-3 -15296-2 0  9998
2 67880  97.2790 353.6195 0001043  84.2357   2.6864 16.01742801  2653
STARLINK-36808          
1 67881U 26035C   26061.83335647 -.00849423  24669-3 -15304-2 0  9997
2 67881  97.2791 353.6180 0001087  88.9274 354.6646 16.01627805  2650
STARLINK-36817          
1 67882U 26035D   26061.83335647 -.00861187  25408-3 -15214-2 0  9991
2 67882  97.2784 353.6221 0001154  83.4272   9.9926 16.01968851  2652
STARLINK-36856          
1 67883U 26035E   26061.83335647 -.00857501  25175-3 -15242-2 0  9999
2 67883  97.2788 353.6208 0001105  90.4084 359.9947 16.01862513  2656
STARLINK-36842          
1 67884U 26035F   26061.83335647 -.00843126  24453-3 -14814-2 0  9990
2 67884  97.2785 353.6233 0001038  76.0688  20.1496 16.02060063  2654
STARLINK-36826          
1 67885U 26035G   26061.83335647 -.00847957  24739-3 -14826-2 0  9997
2 67885  97.2783 353.6242 0001080  77.9352  20.4745 16.02145361  2653
